NUSAT-26 (M SOMERVILLE) 
1 52184U 22033AD  26193.86323120  .00011278  00000+0  25597-3 0  9995
2 52184  97.2348 272.7583 0006872 144.3144 215.8565 15.43187691108661
NUSAT-33 (ALBANIA-2)    
1 55047U 23001AQ  26193.81517144  .00005510  00000+0  20285-3 0  9999
2 55047  97.3064 254.2305 0005010 325.5567  34.5348 15.28239761196223
NUSAT-35 (WILLIAMINA)   
1 55048U 23001AR  26193.84118752  .00009492  00000+0  27434-3 0  9991
2 55048  97.1843 245.9478 0010754  18.5747 341.5888 15.35786814196342
NUSAT-39 (TIKVAH ALPER) 
1 56201U 23054Z   26193.84895051  .00021782  00000+0  41885-3 0  9997
2 56201  97.3103 103.8583 0002203 336.8980  23.2171 15.47938773182428
NUSAT-38 (MARIA AGNESI) 
1 56202U 23054AA  26193.84856631  .00026840  00000+0  46065-3 0  9994
2 56202  97.3040 104.5842 0009143 337.4246  22.6603 15.51102083182488
NUSAT-37 (JOAN CLARKE)  
1 56203U 23054AB  26193.85512821  .00041144  00000+0  51880-3 0  9991
2 56203  97.2613 101.4543 0007531 150.6738 209.4943 15.59463492182640
NUSAT-40 (C SHOEMAKER)  
1 56943U 23084M   26194.01011399  .00084613  00000+0  41539-3 0  9996
2 56943  97.4854 342.6799 0004098 190.0188 170.1000 15.81970869172883
NUSAT-41 (C PAYNE-G)    
1 56944U 23084N   26193.82818418  .00007194  00000+0  24935-3 0  9992
2 56944  97.5542 330.9567 0006284 220.3002 139.7774 15.30123845171700
NUSAT-42 (M WONENBURGER)
1 56966U 23084AL  26193.86288420  .00016581  00000+0  33615-3 0  9999
2 56966  97.5739 339.0752 0006643 153.5195 206.6395 15.46446207172045
NUSAT-44 (MARIA MITCHE*)
1 59122U 24043AA  26193.84892932  .00007127  00000+0  24936-3 0  9991
2 59122  97.5473 334.5045 0006338 138.3167 221.8557 15.29821924131197
NUSAT-50 (NANCY ROMAN)  
1 60493U 24149AB  26193.80458764  .00006080  00000+0  21004-3 0  9998
2 60493  97.3788 274.8880 0004788 107.2832 252.8933 15.30294248106044
NUSAT-48 (HENRIETTA LE*)
1 60498U 24149AG  26193.72814406  .00005428  00000+0  18809-3 0  9997
2 60498  97.3925 275.0995 0004569 165.4244 194.7129 15.30248764106045
NUSAT-49 (KLARA DAN VO*)
1 60500U 24149AJ  26193.76999975  .00006049  00000+0  20862-3 0  9992
2 60500  97.3781 274.8857 0002280 169.7300 190.3987 15.30358383106044
NUSAT-45 (UZMASAT-1)    
1 62640U 25009AH  26193.75902559  .00006016  00000+0  20750-3 0  9996
2 62640  97.3595 274.7293 0001600 185.5071 174.6153 15.30356922 82830
NUSAT-52                
1 66692U 25276AC  26193.75826308  .00003247  00000+0  15384-3 0  9990
2 66692  97.4203 266.8839 0001623 296.8433  63.2636 15.20023490 34307
NUSAT-51 (YVONNE BRILL) 
1 66740U 25276CC  26193.76028168  .00004030  00000+0  18728-3 0  9999
2 66740  97.4209 267.0267 0001624 251.6131 108.4928 15.20549999 34314
