{"fetched_at":"2026-07-13T07:48:33.585Z","source":"https://celestrak.org/NORAD/elements/gp.php?NAME=NUSAT&FORMAT=JSON","constellation":"satellogic","records":[{"OBJECT_NAME":"NUSAT-26 (M SOMERVILLE)","OBJECT_ID":"2022-033AD","EPOCH":"2026-07-12T20:43:03.175680","CLASSIFICATION_TYPE":"U","MEAN_MOTION":15.43187691,"ECCENTRICITY":0.0006872,"INCLINATION":97.2348,"RA_OF_ASC_NODE":272.7583,"ARG_OF_PERICENTER":144.3144,"MEAN_ANOMALY":215.8565,"EPHEMERIS_TYPE":0,"NORAD_CAT_ID":52184,"ELEMENT_SET_NO":999,"REV_AT_EPOCH":10866,"BSTAR":0.00025597,"MEAN_MOTION_DOT":0.00011278,"MEAN_MOTION_DDOT":0},{"OBJECT_NAME":"NUSAT-33 (ALBANIA-2)","OBJECT_ID":"2023-001AQ","EPOCH":"2026-07-12T19:33:50.812416","CLASSIFICATION_TYPE":"U","MEAN_MOTION":15.28239761,"ECCENTRICITY":0.000501,"INCLINATION":97.3064,"RA_OF_ASC_NODE":254.2305,"ARG_OF_PERICENTER":325.5567,"MEAN_ANOMALY":34.5348,"EPHEMERIS_TYPE":0,"NORAD_CAT_ID":55047,"ELEMENT_SET_NO":999,"REV_AT_EPOCH":19622,"BSTAR":0.00020285,"MEAN_MOTION_DOT":0.0000551,"MEAN_MOTION_DDOT":0},{"OBJECT_NAME":"NUSAT-35 (WILLIAMINA)","OBJECT_ID":"2023-001AR","EPOCH":"2026-07-12T20:11:18.601728","CLASSIFICATION_TYPE":"U","MEAN_MOTION":15.35786814,"ECCENTRICITY":0.0010754,"INCLINATION":97.1843,"RA_OF_ASC_NODE":245.9478,"ARG_OF_PERICENTER":18.5747,"MEAN_ANOMALY":341.5888,"EPHEMERIS_TYPE":0,"NORAD_CAT_ID":55048,"ELEMENT_SET_NO":999,"REV_AT_EPOCH":19634,"BSTAR":0.00027434,"MEAN_MOTION_DOT":0.00009492,"MEAN_MOTION_DDOT":0},{"OBJECT_NAME":"NUSAT-39 (TIKVAH ALPER)","OBJECT_ID":"2023-054Z","EPOCH":"2026-07-12T20:22:29.324064","CLASSIFICATION_TYPE":"U","MEAN_MOTION":15.47938773,"ECCENTRICITY":0.0002203,"INCLINATION":97.3103,"RA_OF_ASC_NODE":103.8583,"ARG_OF_PERICENTER":336.898,"MEAN_ANOMALY":23.2171,"EPHEMERIS_TYPE":0,"NORAD_CAT_ID":56201,"ELEMENT_SET_NO":999,"REV_AT_EPOCH":18242,"BSTAR":0.00041885,"MEAN_MOTION_DOT":0.00021782,"MEAN_MOTION_DDOT":0},{"OBJECT_NAME":"NUSAT-38 (MARIA AGNESI)","OBJECT_ID":"2023-054AA","EPOCH":"2026-07-12T20:21:56.129184","CLASSIFICATION_TYPE":"U","MEAN_MOTION":15.51102083,"ECCENTRICITY":0.0009143,"INCLINATION":97.304,"RA_OF_ASC_NODE":104.5842,"ARG_OF_PERICENTER":337.4246,"MEAN_ANOMALY":22.6603,"EPHEMERIS_TYPE":0,"NORAD_CAT_ID":56202,"ELEMENT_SET_NO":999,"REV_AT_EPOCH":18248,"BSTAR":0.00046065,"MEAN_MOTION_DOT":0.0002684,"MEAN_MOTION_DDOT":0},{"OBJECT_NAME":"NUSAT-37 (JOAN CLARKE)","OBJECT_ID":"2023-054AB","EPOCH":"2026-07-12T20:31:23.077344","CLASSIFICATION_TYPE":"U","MEAN_MOTION":15.59463492,"ECCENTRICITY":0.0007531,"INCLINATION":97.2613,"RA_OF_ASC_NODE":101.4543,"ARG_OF_PERICENTER":150.6738,"MEAN_ANOMALY":209.4943,"EPHEMERIS_TYPE":0,"NORAD_CAT_ID":56203,"ELEMENT_SET_NO":999,"REV_AT_EPOCH":18264,"BSTAR":0.0005188,"MEAN_MOTION_DOT":0.00041144,"MEAN_MOTION_DDOT":0},{"OBJECT_NAME":"NUSAT-40 (C SHOEMAKER)","OBJECT_ID":"2023-084M","EPOCH":"2026-07-13T00:14:33.848736","CLASSIFICATION_TYPE":"U","MEAN_MOTION":15.81970869,"ECCENTRICITY":0.0004098,"INCLINATION":97.4854,"RA_OF_ASC_NODE":342.6799,"ARG_OF_PERICENTER":190.0188,"MEAN_ANOMALY":170.1,"EPHEMERIS_TYPE":0,"NORAD_CAT_ID":56943,"ELEMENT_SET_NO":999,"REV_AT_EPOCH":17288,"BSTAR":0.00041539,"MEAN_MOTION_DOT":0.00084613,"MEAN_MOTION_DDOT":0},{"OBJECT_NAME":"NUSAT-41 (C PAYNE-G)","OBJECT_ID":"2023-084N","EPOCH":"2026-07-12T19:52:35.113152","CLASSIFICATION_TYPE":"U","MEAN_MOTION":15.30123845,"ECCENTRICITY":0.0006284,"INCLINATION":97.5542,"RA_OF_ASC_NODE":330.9567,"ARG_OF_PERICENTER":220.3002,"MEAN_ANOMALY":139.7774,"EPHEMERIS_TYPE":0,"NORAD_CAT_ID":56944,"ELEMENT_SET_NO":999,"REV_AT_EPOCH":17170,"BSTAR":0.00024935,"MEAN_MOTION_DOT":0.00007194,"MEAN_MOTION_DDOT":0},{"OBJECT_NAME":"NUSAT-42 (M WONENBURGER)","OBJECT_ID":"2023-084AL","EPOCH":"2026-07-12T20:42:33.194880","CLASSIFICATION_TYPE":"U","MEAN_MOTION":15.46446207,"ECCENTRICITY":0.0006643,"INCLINATION":97.5739,"RA_OF_ASC_NODE":339.0752,"ARG_OF_PERICENTER":153.5195,"MEAN_ANOMALY":206.6395,"EPHEMERIS_TYPE":0,"NORAD_CAT_ID":56966,"ELEMENT_SET_NO":999,"REV_AT_EPOCH":17204,"BSTAR":0.00033615,"MEAN_MOTION_DOT":0.00016581,"MEAN_MOTION_DDOT":0},{"OBJECT_NAME":"NUSAT-44 (MARIA MITCHELL)","OBJECT_ID":"2024-043AA","EPOCH":"2026-07-12T20:22:27.493248","CLASSIFICATION_TYPE":"U","MEAN_MOTION":15.29821924,"ECCENTRICITY":0.0006338,"INCLINATION":97.5473,"RA_OF_ASC_NODE":334.5045,"ARG_OF_PERICENTER":138.3167,"MEAN_ANOMALY":221.8557,"EPHEMERIS_TYPE":0,"NORAD_CAT_ID":59122,"ELEMENT_SET_NO":999,"REV_AT_EPOCH":13119,"BSTAR":0.00024936,"MEAN_MOTION_DOT":0.00007127,"MEAN_MOTION_DDOT":0},{"OBJECT_NAME":"NUSAT-50 (NANCY ROMAN)","OBJECT_ID":"2024-149AB","EPOCH":"2026-07-12T19:18:36.372096","CLASSIFICATION_TYPE":"U","MEAN_MOTION":15.30294248,"ECCENTRICITY":0.0004788,"INCLINATION":97.3788,"RA_OF_ASC_NODE":274.888,"ARG_OF_PERICENTER":107.2832,"MEAN_ANOMALY":252.8933,"EPHEMERIS_TYPE":0,"NORAD_CAT_ID":60493,"ELEMENT_SET_NO":999,"REV_AT_EPOCH":10604,"BSTAR":0.00021004,"MEAN_MOTION_DOT":0.0000608,"MEAN_MOTION_DDOT":0},{"OBJECT_NAME":"NUSAT-48 (HENRIETTA LEAVITT)","OBJECT_ID":"2024-149AG","EPOCH":"2026-07-12T17:28:31.646784","CLASSIFICATION_TYPE":"U","MEAN_MOTION":15.30248764,"ECCENTRICITY":0.0004569,"INCLINATION":97.3925,"RA_OF_ASC_NODE":275.0995,"ARG_OF_PERICENTER":165.4244,"MEAN_ANOMALY":194.7129,"EPHEMERIS_TYPE":0,"NORAD_CAT_ID":60498,"ELEMENT_SET_NO":999,"REV_AT_EPOCH":10604,"BSTAR":0.00018809,"MEAN_MOTION_DOT":0.00005428,"MEAN_MOTION_DDOT":0},{"OBJECT_NAME":"NUSAT-49 (KLARA DAN VON NEUMANN)","OBJECT_ID":"2024-149AJ","EPOCH":"2026-07-12T18:28:47.978400","CLASSIFICATION_TYPE":"U","MEAN_MOTION":15.30358383,"ECCENTRICITY":0.000228,"INCLINATION":97.3781,"RA_OF_ASC_NODE":274.8857,"ARG_OF_PERICENTER":169.73,"MEAN_ANOMALY":190.3987,"EPHEMERIS_TYPE":0,"NORAD_CAT_ID":60500,"ELEMENT_SET_NO":999,"REV_AT_EPOCH":10604,"BSTAR":0.00020862,"MEAN_MOTION_DOT":0.00006049,"MEAN_MOTION_DDOT":0},{"OBJECT_NAME":"NUSAT-45 (UZMASAT-1)","OBJECT_ID":"2025-009AH","EPOCH":"2026-07-12T18:12:59.810976","CLASSIFICATION_TYPE":"U","MEAN_MOTION":15.30356922,"ECCENTRICITY":0.00016,"INCLINATION":97.3595,"RA_OF_ASC_NODE":274.7293,"ARG_OF_PERICENTER":185.5071,"MEAN_ANOMALY":174.6153,"EPHEMERIS_TYPE":0,"NORAD_CAT_ID":62640,"ELEMENT_SET_NO":999,"REV_AT_EPOCH":8283,"BSTAR":0.0002075,"MEAN_MOTION_DOT":0.00006016,"MEAN_MOTION_DDOT":0},{"OBJECT_NAME":"NUSAT-52","OBJECT_ID":"2025-276AC","EPOCH":"2026-07-12T18:11:53.930112","CLASSIFICATION_TYPE":"U","MEAN_MOTION":15.2002349,"ECCENTRICITY":0.0001623,"INCLINATION":97.4203,"RA_OF_ASC_NODE":266.8839,"ARG_OF_PERICENTER":296.8433,"MEAN_ANOMALY":63.2636,"EPHEMERIS_TYPE":0,"NORAD_CAT_ID":66692,"ELEMENT_SET_NO":999,"REV_AT_EPOCH":3430,"BSTAR":0.00015384,"MEAN_MOTION_DOT":0.00003247,"MEAN_MOTION_DDOT":0},{"OBJECT_NAME":"NUSAT-51 (YVONNE BRILL)","OBJECT_ID":"2025-276CC","EPOCH":"2026-07-12T18:14:48.337152","CLASSIFICATION_TYPE":"U","MEAN_MOTION":15.20549999,"ECCENTRICITY":0.0001624,"INCLINATION":97.4209,"RA_OF_ASC_NODE":267.0267,"ARG_OF_PERICENTER":251.6131,"MEAN_ANOMALY":108.4928,"EPHEMERIS_TYPE":0,"NORAD_CAT_ID":66740,"ELEMENT_SET_NO":999,"REV_AT_EPOCH":3431,"BSTAR":0.00018728,"MEAN_MOTION_DOT":0.0000403,"MEAN_MOTION_DDOT":0}]}
